[{"OBJECT_NAME":"STARLINK-3324","OBJECT_ID":"2022-001M","EPOCH":"2026-03-09T13:46:28.333056","MEAN_MOTION":15.08829863,"ECCENTRICITY":0.0001018,"INCLINATION":53.217,"RA_OF_ASC_NODE":169.6439,"ARG_OF_PERICENTER":91.8443,"MEAN_ANOMALY":268.2665,"EPHEMERIS_TYPE":0,"CLASSIFICATION_TYPE":"U","NORAD_CAT_ID":50814,"ELEMENT_SET_NO":999,"REV_AT_EPOCH":23039,"BSTAR":-8.6429e-5,"MEAN_MOTION_DOT":-1.663e-5,"MEAN_MOTION_DDOT":0},{"OBJECT_NAME":"UPPER FREE FLYER","OBJECT_ID":"2018-099F","EPOCH":"2026-03-09T16:53:56.769792","MEAN_MOTION":15.10728091,"ECCENTRICITY":0.00115819,"INCLINATION":97.4495,"RA_OF_ASC_NODE":120.4613,"ARG_OF_PERICENTER":289.4209,"MEAN_ANOMALY":70.5769,"EPHEMERIS_TYPE":0,"CLASSIFICATION_TYPE":"U","NORAD_CAT_ID":43763,"ELEMENT_SET_NO":999,"REV_AT_EPOCH":39752,"BSTAR":0.00029221901,"MEAN_MOTION_DOT":4.788e-5,"MEAN_MOTION_DDOT":0}]
